[{"OBJECT_NAME":"ONEWEB-0101","OBJECT_ID":"2021-025H","EPOCH":"2026-05-04T02:42:34.190208","MEAN_MOTION":13.13470226,"ECCENTRICITY":0.0001636,"INCLINATION":87.8952,"RA_OF_ASC_NODE":329.0087,"ARG_OF_PERICENTER":82.0235,"MEAN_ANOMALY":278.108,"EPHEMERIS_TYPE":0,"CLASSIFICATION_TYPE":"U","NORAD_CAT_ID":48049,"ELEMENT_SET_NO":999,"REV_AT_EPOCH":24771,"BSTAR":9.8113e-05,"MEAN_MOTION_DOT":4.9e-07,"MEAN_MOTION_DDOT":0.0},{"OBJECT_NAME":"ONEWEB-0113","OBJECT_ID":"2021-025J","EPOCH":"2026-05-03T14:50:34.137024","MEAN_MOTION":13.13947818,"ECCENTRICITY":0.0002048,"INCLINATION":87.8957,"RA_OF_ASC_NODE":329.0213,"ARG_OF_PERICENTER":89.7006,"MEAN_ANOMALY":270.4358,"EPHEMERIS_TYPE":0,"CLASSIFICATION_TYPE":"U","NORAD_CAT_ID":48050,"ELEMENT_SET_NO":999,"REV_AT_EPOCH":24775,"BSTAR":0.00017757000000000002,"MEAN_MOTION_DOT":7.8e-07,"MEAN_MOTION_DDOT":0.0},{"OBJECT_NAME":"ONEWEB-0112","OBJECT_ID":"2021-025K","EPOCH":"2026-05-03T22:14:26.689920","MEAN_MOTION":13.13469794,"ECCENTRICITY":0.0001592,"INCLINATION":87.8963,"RA_OF_ASC_NODE":329.0234,"ARG_OF_PERICENTER":79.8754,"MEAN_ANOMALY":280.2555,"EPHEMERIS_TYPE":0,"CLASSIFICATION_TYPE":"U","NORAD_CAT_ID":48051,"ELEMENT_SET_NO":999,"REV_AT_EPOCH":24778,"BSTAR":4.6912e-05,"MEAN_MOTION_DOT":3e-07,"MEAN_MOTION_DDOT":0.0},{"OBJECT_NAME":"ONEWEB-0156","OBJECT_ID":"2021-025L","EPOCH":"2026-05-04T02:06:01.321920","MEAN_MOTION":13.13470602,"ECCENTRICITY":0.0001642,"INCLINATION":87.8961,"RA_OF_ASC_NODE":329.0018,"ARG_OF_PERICENTER":89.4529,"MEAN_ANOMALY":270.6788,"EPHEMERIS_TYPE":0,"CLASSIFICATION_TYPE":"U","NORAD_CAT_ID":48052,"ELEMENT_SET_NO":999,"REV_AT_EPOCH":24778,"BSTAR":0.00085334,"MEAN_MOTION_DOT":3.24e-06,"MEAN_MOTION_DDOT":0.0},{"OBJECT_NAME":"ONEWEB-0161","OBJECT_ID":"2021-025M","EPOCH":"2026-05-03T14:31:16.149792","MEAN_MOTION":13.13471332,"ECCENTRICITY":0.0001565,"INCLINATION":87.8951,"RA_OF_ASC_NODE":329.102,"ARG_OF_PERICENTER":88.6222,"MEAN_ANOMALY":271.5086,"EPHEMERIS_TYPE":0,"CLASSIFICATION_TYPE":"U","NORAD_CAT_ID":48053,"ELEMENT_SET_NO":999,"REV_AT_EPOCH":24765,"BSTAR":-0.00050579,"MEAN_MOTION_DOT":-1.72e-06,"MEAN_MOTION_DDOT":0.0},{"OBJECT_NAME":"ONEWEB-0158","OBJECT_ID":"2021-025N","EPOCH":"2026-05-04T02:20:38.264640","MEAN_MOTION":13.13470584,"ECCENTRICITY":0.000202,"INCLINATION":87.896,"RA_OF_ASC_NODE":328.9992,"ARG_OF_PERICENTER":81.2808,"MEAN_ANOMALY":278.855,"EPHEMERIS_TYPE":0,"CLASSIFICATION_TYPE":"U","NORAD_CAT_ID":48054,"ELEMENT_SET_NO":999,"REV_AT_EPOCH":24784,"BSTAR":0.00091763,"MEAN_MOTION_DOT":3.48e-06,"MEAN_MOTION_DDOT":0.0},{"OBJECT_NAME":"ONEWEB-0157","OBJECT_ID":"2021-025P","EPOCH":"2026-05-04T02:57:11.234016","MEAN_MOTION":13.13470594,"ECCENTRICITY":0.0001361,"INCLINATION":87.8965,"RA_OF_ASC_NODE":328.9987,"ARG_OF_PERICENTER":85.2862,"MEAN_ANOMALY":274.8423,"EPHEMERIS_TYPE":0,"CLASSIFICATION_TYPE":"U","NORAD_CAT_ID":48055,"ELEMENT_SET_NO":999,"REV_AT_EPOCH":24778,"BSTAR":-0.00060513,"MEAN_MOTION_DOT":-2.08e-06,"MEAN_MOTION_DDOT":0.0},{"OBJECT_NAME":"ONEWEB-0162","OBJECT_ID":"2021-025Q","EPOCH":"2026-05-04T02:22:52.949280","MEAN_MOTION":13.13470926,"ECCENTRICITY":0.0001715,"INCLINATION":87.8955,"RA_OF_ASC_NODE":329.0065,"ARG_OF_PERICENTER":91.8745,"MEAN_ANOMALY":268.258,"EPHEMERIS_TYPE":0,"CLASSIFICATION_TYPE":"U","NORAD_CAT_ID":48056,"ELEMENT_SET_NO":999,"REV_AT_EPOCH":24775,"BSTAR":0.00099673,"MEAN_MOTION_DOT":3.77e-06,"MEAN_MOTION_DDOT":0.0},{"OBJECT_NAME":"ONEWEB-0155","OBJECT_ID":"2021-025R","EPOCH":"2026-05-04T02:32:49.521408","MEAN_MOTION":13.13470306,"ECCENTRICITY":0.000161,"INCLINATION":87.8956,"RA_OF_ASC_NODE":329.0015,"ARG_OF_PERICENTER":81.5495,"MEAN_ANOMALY":278.5816,"EPHEMERIS_TYPE":0,"CLASSIFICATION_TYPE":"U","NORAD_CAT_ID":48057,"ELEMENT_SET_NO":999,"REV_AT_EPOCH":24789,"BSTAR":0.0005843,"MEAN_MOTION_DOT":2.26e-06,"MEAN_MOTION_DDOT":0.0},{"OBJECT_NAME":"ONEWEB-0149","OBJECT_ID":"2021-025S","EPOCH":"2026-05-04T03:04:31.149120","MEAN_MOTION":13.13470323,"ECCENTRICITY":0.0001735,"INCLINATION":87.8961,"RA_OF_ASC_NODE":328.998,"ARG_OF_PERICENTER":93.8802,"MEAN_ANOMALY":266.2526,"EPHEMERIS_TYPE":0,"CLASSIFICATION_TYPE":"U","NORAD_CAT_ID":48058,"ELEMENT_SET_NO":999,"REV_AT_EPOCH":24770,"BSTAR":-0.00070249,"MEAN_MOTION_DOT":-2.44e-06,"MEAN_MOTION_DDOT":0.0},{"OBJECT_NAME":"ONEWEB-0148","OBJECT_ID":"2021-025T","EPOCH":"2026-05-04T02:10:53.664096","MEAN_MOTION":13.13458458,"ECCENTRICITY":0.0001745,"INCLINATION":87.8954,"RA_OF_ASC_NODE":329.0161,"ARG_OF_PERICENTER":103.1916,"MEAN_ANOMALY":256.9408,"EPHEMERIS_TYPE":0,"CLASSIFICATION_TYPE":"U","NORAD_CAT_ID":48059,"ELEMENT_SET_NO":999,"REV_AT_EPOCH":24782,"BSTAR":0.008008999999999999,"MEAN_MOTION_DOT":2.938e-05,"MEAN_MOTION_DDOT":0.0},{"OBJECT_NAME":"ONEWEB-0160","OBJECT_ID":"2021-025U","EPOCH":"2026-05-04T02:35:16.715904","MEAN_MOTION":13.13469667,"ECCENTRICITY":0.0002463,"INCLINATION":87.895,"RA_OF_ASC_NODE":329.0088,"ARG_OF_PERICENTER":84.0213,"MEAN_ANOMALY":276.1197,"EPHEMERIS_TYPE":0,"CLASSIFICATION_TYPE":"U","NORAD_CAT_ID":48060,"ELEMENT_SET_NO":999,"REV_AT_EPOCH":24777,"BSTAR":0.0006463,"MEAN_MOTION_DOT":2.49e-06,"MEAN_MOTION_DDOT":0.0},{"OBJECT_NAME":"ONEWEB-0163","OBJECT_ID":"2021-025V","EPOCH":"2026-05-04T02:13:18.772896","MEAN_MOTION":13.134711,"ECCENTRICITY":0.0001459,"INCLINATION":87.8951,"RA_OF_ASC_NODE":329.005,"ARG_OF_PERICENTER":84.9768,"MEAN_ANOMALY":275.1528,"EPHEMERIS_TYPE":0,"CLASSIFICATION_TYPE":"U","NORAD_CAT_ID":48061,"ELEMENT_SET_NO":999,"REV_AT_EPOCH":24789,"BSTAR":0.00089182,"MEAN_MOTION_DOT":3.38e-06,"MEAN_MOTION_DDOT":0.0},{"OBJECT_NAME":"ONEWEB-0159","OBJECT_ID":"2021-025W","EPOCH":"2026-05-04T00:11:26.746944","MEAN_MOTION":13.13473604,"ECCENTRICITY":0.0001475,"INCLINATION":87.8961,"RA_OF_ASC_NODE":329.0129,"ARG_OF_PERICENTER":83.4187,"MEAN_ANOMALY":276.711,"EPHEMERIS_TYPE":0,"CLASSIFICATION_TYPE":"U","NORAD_CAT_ID":48062,"ELEMENT_SET_NO":999,"REV_AT_EPOCH":24780,"BSTAR":0.0006301,"MEAN_MOTION_DOT":2.43e-06,"MEAN_MOTION_DDOT":0.0},{"OBJECT_NAME":"ONEWEB-0164","OBJECT_ID":"2021-025X","EPOCH":"2026-05-03T14:36:09.000864","MEAN_MOTION":13.13471035,"ECCENTRICITY":0.0001816,"INCLINATION":87.8962,"RA_OF_ASC_NODE":329.0986,"ARG_OF_PERICENTER":85.3266,"MEAN_ANOMALY":274.807,"EPHEMERIS_TYPE":0,"CLASSIFICATION_TYPE":"U","NORAD_CAT_ID":48063,"ELEMENT_SET_NO":999,"REV_AT_EPOCH":24773,"BSTAR":-0.00049849,"MEAN_MOTION_DOT":-1.69e-06,"MEAN_MOTION_DDOT":0.0},{"OBJECT_NAME":"ONEWEB-0167","OBJECT_ID":"2021-025Y","EPOCH":"2026-05-04T02:14:33.462240","MEAN_MOTION":13.13469955,"ECCENTRICITY":0.0001508,"INCLINATION":87.8952,"RA_OF_ASC_NODE":329.0163,"ARG_OF_PERICENTER":63.9988,"MEAN_ANOMALY":296.1296,"EPHEMERIS_TYPE":0,"CLASSIFICATION_TYPE":"U","NORAD_CAT_ID":48064,"ELEMENT_SET_NO":999,"REV_AT_EPOCH":24778,"BSTAR":0.0010677,"MEAN_MOTION_DOT":4.03e-06,"MEAN_MOTION_DDOT":0.0},{"OBJECT_NAME":"ONEWEB-0166","OBJECT_ID":"2021-025Z","EPOCH":"2026-05-04T02:47:26.316384","MEAN_MOTION":13.1346841,"ECCENTRICITY":0.0001624,"INCLINATION":87.8964,"RA_OF_ASC_NODE":328.9787,"ARG_OF_PERICENTER":92.1481,"MEAN_ANOMALY":267.9834,"EPHEMERIS_TYPE":0,"CLASSIFICATION_TYPE":"U","NORAD_CAT_ID":48065,"ELEMENT_SET_NO":999,"REV_AT_EPOCH":24786,"BSTAR":-0.00012706000000000002,"MEAN_MOTION_DOT":-3.4e-07,"MEAN_MOTION_DDOT":0.0},{"OBJECT_NAME":"ONEWEB-0151","OBJECT_ID":"2021-025AA","EPOCH":"2026-05-04T02:49:52.932864","MEAN_MOTION":13.13470245,"ECCENTRICITY":0.0001706,"INCLINATION":87.8954,"RA_OF_ASC_NODE":329.0,"ARG_OF_PERICENTER":81.8666,"MEAN_ANOMALY":278.2657,"EPHEMERIS_TYPE":0,"CLASSIFICATION_TYPE":"U","NORAD_CAT_ID":48066,"ELEMENT_SET_NO":999,"REV_AT_EPOCH":24780,"BSTAR":-0.00027187,"MEAN_MOTION_DOT":-8.7e-07,"MEAN_MOTION_DDOT":0.0},{"OBJECT_NAME":"ONEWEB-0170","OBJECT_ID":"2021-025AB","EPOCH":"2026-05-04T03:02:04.733088","MEAN_MOTION":13.13470497,"ECCENTRICITY":0.0002076,"INCLINATION":87.895,"RA_OF_ASC_NODE":328.9997,"ARG_OF_PERICENTER":76.5094,"MEAN_ANOMALY":283.6266,"EPHEMERIS_TYPE":0,"CLASSIFICATION_TYPE":"U","NORAD_CAT_ID":48067,"ELEMENT_SET_NO":999,"REV_AT_EPOCH":24776,"BSTAR":-0.00071363,"MEAN_MOTION_DOT":-2.48e-06,"MEAN_MOTION_DDOT":0.0},{"OBJECT_NAME":"ONEWEB-0168","OBJECT_ID":"2021-025AC","EPOCH":"2026-05-04T02:40:08.385888","MEAN_MOTION":13.13470498,"ECCENTRICITY":0.0001527,"INCLINATION":87.8961,"RA_OF_ASC_NODE":328.9989,"ARG_OF_PERICENTER":86.8564,"MEAN_ANOMALY":273.274,"EPHEMERIS_TYPE":0,"CLASSIFICATION_TYPE":"U","NORAD_CAT_ID":48068,"ELEMENT_SET_NO":999,"REV_AT_EPOCH":24777,"BSTAR":0.00025502,"MEAN_MOTION_DOT":1.06e-06,"MEAN_MOTION_DDOT":0.0},{"OBJECT_NAME":"ONEWEB-0173","OBJECT_ID":"2021-025AD","EPOCH":"2026-05-04T02:27:57.237984","MEAN_MOTION":13.13470394,"ECCENTRICITY":0.0001387,"INCLINATION":87.8955,"RA_OF_ASC_NODE":329.005,"ARG_OF_PERICENTER":79.5507,"MEAN_ANOMALY":280.5779,"EPHEMERIS_TYPE":0,"CLASSIFICATION_TYPE":"U","NORAD_CAT_ID":48069,"ELEMENT_SET_NO":999,"REV_AT_EPOCH":24801,"BSTAR":0.0005901600000000001,"MEAN_MOTION_DOT":2.28e-06,"MEAN_MOTION_DDOT":0.0},{"OBJECT_NAME":"ONEWEB-0171","OBJECT_ID":"2021-025AE","EPOCH":"2026-05-03T14:33:41.912640","MEAN_MOTION":13.1347175,"ECCENTRICITY":0.0001779,"INCLINATION":87.8952,"RA_OF_ASC_NODE":329.1129,"ARG_OF_PERICENTER":83.5516,"MEAN_ANOMALY":276.5815,"EPHEMERIS_TYPE":0,"CLASSIFICATION_TYPE":"U","NORAD_CAT_ID":48070,"ELEMENT_SET_NO":999,"REV_AT_EPOCH":24776,"BSTAR":-0.00048723,"MEAN_MOTION_DOT":-1.65e-06,"MEAN_MOTION_DDOT":0.0},{"OBJECT_NAME":"ONEWEB-0172","OBJECT_ID":"2021-025AF","EPOCH":"2026-05-04T02:52:18.465024","MEAN_MOTION":13.13469014,"ECCENTRICITY":0.0001637,"INCLINATION":87.8955,"RA_OF_ASC_NODE":328.9984,"ARG_OF_PERICENTER":81.4317,"MEAN_ANOMALY":278.6997,"EPHEMERIS_TYPE":0,"CLASSIFICATION_TYPE":"U","NORAD_CAT_ID":48071,"ELEMENT_SET_NO":999,"REV_AT_EPOCH":24872,"BSTAR":-0.00051248,"MEAN_MOTION_DOT":-1.74e-06,"MEAN_MOTION_DDOT":0.0}]